{
  "norad_id": 64381,
  "name": "STARLINK-11692 [DTC]",
  "history": [
    {
      "epoch": "2026-03-28T22:58:25.692384",
      "apogee_km": 356.5372820315306,
      "perigee_km": 355.43355936677744,
      "latitude_deg": 8.07099245121637,
      "longitude_deg": -10.004786239936948,
      "semi_major_axis_km": 6734.122420699154,
      "eccentricity": 8.195e-05,
      "inclination_deg": 42.9992,
      "raan_deg": 328.3071,
      "arg_perigee_deg": 211.6128,
      "mean_anomaly_deg": 148.4691,
      "mean_motion_rev_day": 15.71018326
    },
    {
      "epoch": "2026-03-29T02:01:32.839104",
      "apogee_km": 357.3506335598149,
      "perigee_km": 355.25083587412973,
      "latitude_deg": 34.16114394925189,
      "longitude_deg": 2.2031545599456877,
      "semi_major_axis_km": 6734.437734716972,
      "eccentricity": 0.0001559,
      "inclination_deg": 42.9993,
      "raan_deg": 327.5408,
      "arg_perigee_deg": 272.6963,
      "mean_anomaly_deg": 87.3726,
      "mean_motion_rev_day": 15.70907992
    }
  ]
}